ISS (ZARYA)             
1 25544U 98067A   26052.57165169  .00010573  00000+0  20534-3 0  9997
2 25544  51.6321 152.0271 0008520 119.1208 241.0634 15.48184707553834
CSS (TIANHE)            
1 48274U 21035A   26052.58570698  .00018430  00000+0  22529-3 0  9997
2 48274  41.4670 306.0957 0004984 164.3511 195.7483 15.59967425275098
ISS (NAUKA)             
1 49044U 21066A   26052.57165169  .00010573  00000+0  20534-3 0  9993
2 49044  51.6321 152.0271 0008520 119.1208 241.0634 15.48184707230444
FREGAT DEB              
1 49271U 11037PF  26052.15377671  .00031271  00000+0  48386-1 0  9990
2 49271  51.6521 350.3004 0945519  21.4099 342.3711 12.39099986210648
CSS (WENTIAN)           
1 53239U 22085A   26052.58570698  .00018430  00000+0  22529-3 0  9990
2 53239  41.4670 306.0957 0004984 164.3511 195.7483 15.59967425173845
CSS (MENGTIAN)          
1 54216U 22143A   26052.58570698  .00018430  00000+0  22529-3 0  9991
2 54216  41.4670 306.0957 0004984 164.3511 195.7483 15.59967425158642
PROGRESS-MS 31          
1 64751U 25146A   26052.57165169  .00010573  00000+0  20534-3 0  9998
2 64751  51.6321 152.0271 0008520 119.1208 241.0634 15.48184707  6751
TIANZHOU-9              
1 64786U 25149A   26052.58570698  .00018430  00000+0  22529-3 0  9993
2 64786  41.4670 306.0957 0004984 164.3511 195.7483 15.59967425255306
DRAGON CRS-33           
1 65304U 25186A   26052.57165169  .00010573  00000+0  20534-3 0  9997
2 65304  51.6321 152.0271 0008520 119.1208 241.0634 15.48184707   110
PROGRESS-MS 32          
1 65586U 25204A   26052.57165169  .00010573  00000+0  20534-3 0  9990
2 65586  51.6321 152.0271 0008520 119.1208 241.0634 15.48184707   279
CYGNUS NG-23            
1 65616U 25208A   26052.57165169  .00010573  00000+0  20534-3 0  9998
2 65616  51.6321 152.0271 0008520 119.1208 241.0634 15.48184707   228
ISS OBJECT XK           
1 65731U 98067XK  26052.61765005  .00398643  72676-4  11141-2 0  9992
2 65731  51.6198 131.9863 0007181   2.0075 358.0959 15.93063945 24321
