CCSDS_OMM_VERS = 2.0
CREATION_DATE  = 
ORIGINATOR     = 

OBJECT_NAME    = ISS (ZARYA)
OBJECT_ID      = 1998-067A
CENTER_NAME    = EARTH
REF_FRAME      = TEME
TIME_SYSTEM    = UTC
MEAN_ELEMENT_THEORY = SGP/SGP4

EPOCH          = 2026-02-21T13:43:10.706016
MEAN_MOTION    = 15.48184707
ECCENTRICITY   = .00085206
INCLINATION    = 51.6321
RA_OF_ASC_NODE = 152.0271
ARG_OF_PERICENTER = 119.1208
MEAN_ANOMALY   = 241.0634

EPHEMERIS_TYPE = 0
CLASSIFICATION_TYPE = U
NORAD_CAT_ID   = 25544
ELEMENT_SET_NO = 999
REV_AT_EPOCH   = 55383
BSTAR          = .20534485E-3
MEAN_MOTION_DOT = .10573E-3
MEAN_MOTION_DDOT = 0

CCSDS_OMM_VERS = 2.0
CREATION_DATE  = 
ORIGINATOR     = 

OBJECT_NAME    = CSS (TIANHE)
OBJECT_ID      = 2021-035A
CENTER_NAME    = EARTH
REF_FRAME      = TEME
TIME_SYSTEM    = UTC
MEAN_ELEMENT_THEORY = SGP/SGP4

EPOCH          = 2026-02-21T14:03:25.083072
MEAN_MOTION    = 15.59967425
ECCENTRICITY   = .00049843
INCLINATION    = 41.4670
RA_OF_ASC_NODE = 306.0957
ARG_OF_PERICENTER = 164.3511
MEAN_ANOMALY   = 195.7483

EPHEMERIS_TYPE = 0
CLASSIFICATION_TYPE = U
NORAD_CAT_ID   = 48274
ELEMENT_SET_NO = 999
REV_AT_EPOCH   = 27509
BSTAR          = .22529145E-3
MEAN_MOTION_DOT = .1843E-3
MEAN_MOTION_DDOT = 0

CCSDS_OMM_VERS = 2.0
CREATION_DATE  = 
ORIGINATOR     = 

OBJECT_NAME    = ISS (NAUKA)
OBJECT_ID      = 2021-066A
CENTER_NAME    = EARTH
REF_FRAME      = TEME
TIME_SYSTEM    = UTC
MEAN_ELEMENT_THEORY = SGP/SGP4

EPOCH          = 2026-02-21T13:43:10.706016
MEAN_MOTION    = 15.48184707
ECCENTRICITY   = .00085206
INCLINATION    = 51.6321
RA_OF_ASC_NODE = 152.0271
ARG_OF_PERICENTER = 119.1208
MEAN_ANOMALY   = 241.0634

EPHEMERIS_TYPE = 0
CLASSIFICATION_TYPE = U
NORAD_CAT_ID   = 49044
ELEMENT_SET_NO = 999
REV_AT_EPOCH   = 23044
BSTAR          = .20534485E-3
MEAN_MOTION_DOT = .10573E-3
MEAN_MOTION_DDOT = 0

CCSDS_OMM_VERS = 2.0
CREATION_DATE  = 
ORIGINATOR     = 

OBJECT_NAME    = FREGAT DEB
OBJECT_ID      = 2011-037PF
CENTER_NAME    = EARTH
REF_FRAME      = TEME
TIME_SYSTEM    = UTC
MEAN_ELEMENT_THEORY = SGP/SGP4

EPOCH          = 2026-02-21T03:41:26.307744
MEAN_MOTION    = 12.39099986
ECCENTRICITY   = .09455196
INCLINATION    = 51.6521
RA_OF_ASC_NODE = 350.3004
ARG_OF_PERICENTER = 21.4099
MEAN_ANOMALY   = 342.3711

EPHEMERIS_TYPE = 0
CLASSIFICATION_TYPE = U
NORAD_CAT_ID   = 49271
ELEMENT_SET_NO = 999
REV_AT_EPOCH   = 21064
BSTAR          = .48385544E-1
MEAN_MOTION_DOT = .31271E-3
MEAN_MOTION_DDOT = 0

CCSDS_OMM_VERS = 2.0
CREATION_DATE  = 
ORIGINATOR     = 

OBJECT_NAME    = CSS (WENTIAN)
OBJECT_ID      = 2022-085A
CENTER_NAME    = EARTH
REF_FRAME      = TEME
TIME_SYSTEM    = UTC
MEAN_ELEMENT_THEORY = SGP/SGP4

EPOCH          = 2026-02-21T14:03:25.083072
MEAN_MOTION    = 15.59967425
ECCENTRICITY   = .00049843
INCLINATION    = 41.4670
RA_OF_ASC_NODE = 306.0957
ARG_OF_PERICENTER = 164.3511
MEAN_ANOMALY   = 195.7483

EPHEMERIS_TYPE = 0
CLASSIFICATION_TYPE = U
NORAD_CAT_ID   = 53239
ELEMENT_SET_NO = 999
REV_AT_EPOCH   = 17384
BSTAR          = .22529145E-3
MEAN_MOTION_DOT = .1843E-3
MEAN_MOTION_DDOT = 0

CCSDS_OMM_VERS = 2.0
CREATION_DATE  = 
ORIGINATOR     = 

OBJECT_NAME    = CSS (MENGTIAN)
OBJECT_ID      = 2022-143A
CENTER_NAME    = EARTH
REF_FRAME      = TEME
TIME_SYSTEM    = UTC
MEAN_ELEMENT_THEORY = SGP/SGP4

EPOCH          = 2026-02-21T14:03:25.083072
MEAN_MOTION    = 15.59967425
ECCENTRICITY   = .00049843
INCLINATION    = 41.4670
RA_OF_ASC_NODE = 306.0957
ARG_OF_PERICENTER = 164.3511
MEAN_ANOMALY   = 195.7483

EPHEMERIS_TYPE = 0
CLASSIFICATION_TYPE = U
NORAD_CAT_ID   = 54216
ELEMENT_SET_NO = 999
REV_AT_EPOCH   = 15864
BSTAR          = .22529145E-3
MEAN_MOTION_DOT = .1843E-3
MEAN_MOTION_DDOT = 0

CCSDS_OMM_VERS = 2.0
CREATION_DATE  = 
ORIGINATOR     = 

OBJECT_NAME    = PROGRESS-MS 31
OBJECT_ID      = 2025-146A
CENTER_NAME    = EARTH
REF_FRAME      = TEME
TIME_SYSTEM    = UTC
MEAN_ELEMENT_THEORY = SGP/SGP4

EPOCH          = 2026-02-21T13:43:10.706016
MEAN_MOTION    = 15.48184707
ECCENTRICITY   = .00085206
INCLINATION    = 51.6321
RA_OF_ASC_NODE = 152.0271
ARG_OF_PERICENTER = 119.1208
MEAN_ANOMALY   = 241.0634

EPHEMERIS_TYPE = 0
CLASSIFICATION_TYPE = U
NORAD_CAT_ID   = 64751
ELEMENT_SET_NO = 999
REV_AT_EPOCH   = 675
BSTAR          = .20534485E-3
MEAN_MOTION_DOT = .10573E-3
MEAN_MOTION_DDOT = 0

CCSDS_OMM_VERS = 2.0
CREATION_DATE  = 
ORIGINATOR     = 

OBJECT_NAME    = TIANZHOU-9
OBJECT_ID      = 2025-149A
CENTER_NAME    = EARTH
REF_FRAME      = TEME
TIME_SYSTEM    = UTC
MEAN_ELEMENT_THEORY = SGP/SGP4

EPOCH          = 2026-02-21T14:03:25.083072
MEAN_MOTION    = 15.59967425
ECCENTRICITY   = .00049843
INCLINATION    = 41.4670
RA_OF_ASC_NODE = 306.0957
ARG_OF_PERICENTER = 164.3511
MEAN_ANOMALY   = 195.7483

EPHEMERIS_TYPE = 0
CLASSIFICATION_TYPE = U
NORAD_CAT_ID   = 64786
ELEMENT_SET_NO = 999
REV_AT_EPOCH   = 25530
BSTAR          = .22529145E-3
MEAN_MOTION_DOT = .1843E-3
MEAN_MOTION_DDOT = 0

CCSDS_OMM_VERS = 2.0
CREATION_DATE  = 
ORIGINATOR     = 

OBJECT_NAME    = DRAGON CRS-33
OBJECT_ID      = 2025-186A
CENTER_NAME    = EARTH
REF_FRAME      = TEME
TIME_SYSTEM    = UTC
MEAN_ELEMENT_THEORY = SGP/SGP4

EPOCH          = 2026-02-21T13:43:10.706016
MEAN_MOTION    = 15.48184707
ECCENTRICITY   = .00085206
INCLINATION    = 51.6321
RA_OF_ASC_NODE = 152.0271
ARG_OF_PERICENTER = 119.1208
MEAN_ANOMALY   = 241.0634

EPHEMERIS_TYPE = 0
CLASSIFICATION_TYPE = U
NORAD_CAT_ID   = 65304
ELEMENT_SET_NO = 999
REV_AT_EPOCH   = 11
BSTAR          = .20534485E-3
MEAN_MOTION_DOT = .10573E-3
MEAN_MOTION_DDOT = 0

CCSDS_OMM_VERS = 2.0
CREATION_DATE  = 
ORIGINATOR     = 

OBJECT_NAME    = PROGRESS-MS 32
OBJECT_ID      = 2025-204A
CENTER_NAME    = EARTH
REF_FRAME      = TEME
TIME_SYSTEM    = UTC
MEAN_ELEMENT_THEORY = SGP/SGP4

EPOCH          = 2026-02-21T13:43:10.706016
MEAN_MOTION    = 15.48184707
ECCENTRICITY   = .00085206
INCLINATION    = 51.6321
RA_OF_ASC_NODE = 152.0271
ARG_OF_PERICENTER = 119.1208
MEAN_ANOMALY   = 241.0634

EPHEMERIS_TYPE = 0
CLASSIFICATION_TYPE = U
NORAD_CAT_ID   = 65586
ELEMENT_SET_NO = 999
REV_AT_EPOCH   = 27
BSTAR          = .20534485E-3
MEAN_MOTION_DOT = .10573E-3
MEAN_MOTION_DDOT = 0

CCSDS_OMM_VERS = 2.0
CREATION_DATE  = 
ORIGINATOR     = 

OBJECT_NAME    = CYGNUS NG-23
OBJECT_ID      = 2025-208A
CENTER_NAME    = EARTH
REF_FRAME      = TEME
TIME_SYSTEM    = UTC
MEAN_ELEMENT_THEORY = SGP/SGP4

EPOCH          = 2026-02-21T13:43:10.706016
MEAN_MOTION    = 15.48184707
ECCENTRICITY   = .00085206
INCLINATION    = 51.6321
RA_OF_ASC_NODE = 152.0271
ARG_OF_PERICENTER = 119.1208
MEAN_ANOMALY   = 241.0634

EPHEMERIS_TYPE = 0
CLASSIFICATION_TYPE = U
NORAD_CAT_ID   = 65616
ELEMENT_SET_NO = 999
REV_AT_EPOCH   = 22
BSTAR          = .20534485E-3
MEAN_MOTION_DOT = .10573E-3
MEAN_MOTION_DDOT = 0

CCSDS_OMM_VERS = 2.0
CREATION_DATE  = 
ORIGINATOR     = 

OBJECT_NAME    = ISS OBJECT XK
OBJECT_ID      = 1998-067XK
CENTER_NAME    = EARTH
REF_FRAME      = TEME
TIME_SYSTEM    = UTC
MEAN_ELEMENT_THEORY = SGP/SGP4

EPOCH          = 2026-02-21T14:49:24.964320
MEAN_MOTION    = 15.93063945
ECCENTRICITY   = .00071815
INCLINATION    = 51.6198
RA_OF_ASC_NODE = 131.9863
ARG_OF_PERICENTER = 2.0075
MEAN_ANOMALY   = 358.0959

EPHEMERIS_TYPE = 0
CLASSIFICATION_TYPE = U
NORAD_CAT_ID   = 65731
ELEMENT_SET_NO = 999
REV_AT_EPOCH   = 2432
BSTAR          = .11141042E-2
MEAN_MOTION_DOT = .398643E-2
MEAN_MOTION_DDOT = .72675641E-4

